QIANFAN-60              
1 62790U 25016F   25310.26629628  .00000043  00000+0  47007-4 0  9998
2 62790  88.9729 106.8485 0017473  89.6785 270.6369 13.50973620 42304
QIANFAN-61              
1 62791U 25016G   25310.22495550  .00000047  00000+0  53330-4 0  9990
2 62791  88.9797 106.9908 0016407  89.2222 271.0809 13.50977010 42311
QIANFAN-62              
1 62792U 25016H   25310.22921565  .00000048  00000+0  55282-4 0  9990
2 62792  88.9743 106.8786 0017794  89.5217 270.7973 13.50980642 42305
QIANFAN-63              
1 62793U 25016J   25310.25384224  .00000045  00000+0  50191-4 0  9990
2 62793  88.9750 106.8251 0017845  94.2801 266.0390 13.50973744 42340
QIANFAN-64              
1 62794U 25016K   25310.22088244  .00000051  00000+0  59406-4 0  9996
2 62794  88.9736 106.8075 0015772  88.0770 272.2188 13.50975571 42335
QIANFAN-65              
1 62795U 25016L   25310.21680802  .00000065  00000+0  81176-4 0  9998
2 62795  88.9733 106.8352 0015604  89.6724 270.6215 13.50974595 42317
QIANFAN-66              
1 62796U 25016M   25310.24564625  .00000052  00000+0  61960-4 0  9991
2 62796  88.9753 106.7952 0016700  85.5814 274.7245 13.50978559 42365
QIANFAN-67              
1 62797U 25016N   25310.24976071  .00000061  00000+0  74976-4 0  9995
2 62797  88.9743 106.8239 0016700  91.7751 268.5313 13.50971409 42334
QIANFAN-68              
1 62798U 25016P   25310.24151956  .00000053  00000+0  62625-4 0  9992
2 62798  88.9746 106.8686 0016744  90.2235 270.0835 13.50973699 42311
QIANFAN-69              
1 62799U 25016Q   25310.25805583  .00000051  00000+0  59313-4 0  9994
2 62799  88.9725 106.7442 0017503  91.0925 269.2231 13.50971061 42352
QIANFAN-70              
1 62800U 25016R   25310.27432842  .00000062  00000+0  76827-4 0  9994
2 62800  88.9746 106.8733 0017057  82.3553 277.9534 13.50974060 42316
QIANFAN-71              
1 62801U 25016S   25310.27030058  .00000046  00000+0  52845-4 0  9994
2 62801  88.9740 106.8555 0017430  94.2346 266.0797 13.50974793 42313
QIANFAN-72              
1 62802U 25016T   25310.13864460  .00000047  00000+0  53814-4 0  9990
2 62802  88.9730 106.8860 0020688 101.1923 259.1556 13.50974540 42282
QIANFAN-73              
1 63159U 25046A   25310.31362515  .00000025  00000+0  20258-4 0  9995
2 63159  88.9758 323.7973 0013576 223.8964 136.1110 13.50972573 42495
QIANFAN-74              
1 63160U 25046B   25310.29712634  .00000046  00000+0  52001-4 0  9999
2 63160  88.9759 323.6874 0002064  92.0555 268.0833 13.50974485 42557
QIANFAN-75              
1 63161U 25046C   25310.21051359  .00000119  00000+0  16589-3 0  9993
2 63161  88.9761 323.9295 0014621 228.0209 131.9698 13.50985003 42410
QIANFAN-76              
1 63162U 25046D   25310.28070961 -.00000138  00000+0 -23211-3 0  9994
2 63162  88.9759 323.9030 0012202 227.7677 132.2439 13.50969142 42438
QIANFAN-77              
1 63163U 25046E   25310.27550444  .00000157  00000+0  10483-3 0  9999
2 63163  88.9759 322.2098 0014435 186.2861 173.8136 13.96080405 43363
QIANFAN-78              
1 63164U 25046F   25310.32184558  .00000016  00000+0  57032-5 0  9992
2 63164  88.9757 323.7630 0013549 230.6475 129.3476 13.50974169 42518
QIANFAN-79              
1 63165U 25046G   25310.27646963  .00000027  00000+0  23149-4 0  9993
2 63165  88.9763 323.8741 0013231 228.5940 131.4075 13.50974194 42451
QIANFAN-80              
1 63166U 25046H   25310.21895382  .00000104  00000+0  14275-3 0  9994
2 63166  88.9760 323.5877 0012111 233.2914 126.7125 13.50976634 42607
QIANFAN-81              
1 63167U 25046J   25310.27195812  .00000122  00000+0  16993-3 0  9991
2 63167  88.9760 323.6504 0013401 220.5308 139.4846 13.50992499 42568
QIANFAN-82              
1 63168U 25046K   25310.23134016  .00000096  00000+0  13043-3 0  9990
2 63168  88.9760 323.6983 0011356 228.6216 131.3959 13.50973511 42542
QIANFAN-83              
1 63169U 25046L   25310.25911670  .00000069  00000+0  73748-4 0  9991
2 63169  88.9760 323.5434 0012922 214.8821 145.1491 13.61967375 42639
QIANFAN-84              
1 63170U 25046M   25310.25943766 -.00000024  00000+0 -55579-4 0  9999
2 63170  88.9758 323.8282 0014416 225.9647 134.0318 13.50986749 42472
QIANFAN-85              
1 63171U 25046N   25310.25597966  .00000132  00000+0  18627-3 0  9997
2 63171  88.9759 323.7005 0011731 227.4596 132.5565 13.50977550 42548
QIANFAN-86              
1 63172U 25046P   25310.26426923  .00000115  00000+0  16008-3 0  9995
2 63172  88.9762 323.5609 0009524 231.1820 128.8482 13.50974816 42627
QIANFAN-87              
1 63173U 25046Q   25310.30954286  .00000028  00000+0  25078-4 0  9990
2 63173  88.9758 323.6693 0010285 225.8274 134.2032 13.50969928 42569
QIANFAN-88              
1 63174U 25046R   25310.25193956  .00000103  00000+0  14113-3 0  9995
2 63174  88.9760 323.6288 0010521 235.3183 124.6978 13.50972748 42589
QIANFAN-89              
1 63175U 25046S   25310.28878341  .00000113  00000+0  15671-3 0  9998
2 63175  88.9760 323.8141 0015050 226.4014 133.5889 13.50975132 42485
QIANFAN-90              
1 63176U 25046T   25310.31750820  .00000015  00000+0  50364-5 0  9995
2 63176  88.9761 323.7835 0012048 223.1066 136.9143 13.50974078 42502
QIANFAN-91              
1 66033U 25233A   25310.27061089  .00000836  00000+0  34450-3 0  9992
2 66033  88.9952  66.2294 0016581 146.8942 213.3293 14.25919058  2846
QIANFAN-92              
1 66034U 25233B   25310.26982745  .00000830  00000+0  34137-3 0  9999
2 66034  88.9951  66.2291 0016180 149.3620 210.8522 14.26000831  2847
QIANFAN-93              
1 66035U 25233C   25310.26863589  .00000849  00000+0  34891-3 0  9991
2 66035  88.9952  66.2291 0015496 148.7227 211.4892 14.26084540  2840
QIANFAN-94              
1 66036U 25233D   25310.26833963  .00000844  00000+0  34676-3 0  9991
2 66036  88.9952  66.2292 0015567 148.3704 211.8428 14.26109697  2847
QIANFAN-95              
1 66037U 25233E   25310.26796383  .00000851  00000+0  34934-3 0  9991
2 66037  88.9952  66.2290 0015530 148.7584 211.4536 14.26154908  2847
QIANFAN-96              
1 66038U 25233F   25310.26770179  .00000826  00000+0  33896-3 0  9995
2 66038  88.9952  66.2289 0016168 150.6499 209.5606 14.26158644  2848
QIANFAN-97              
1 66039U 25233G   25310.26760060  .00000833  00000+0  34184-3 0  9993
2 66039  88.9952  66.2289 0015742 150.1177 210.0919 14.26164600  2847
QIANFAN-98              
1 66040U 25233H   25310.26733055  .00000825  00000+0  33819-3 0  9994
2 66040  88.9953  66.2290 0015377 148.8807 211.3301 14.26186006  2843
QIANFAN-99              
1 66041U 25233J   25310.26718463  .00000831  00000+0  34051-3 0  9997
2 66041  88.9952  66.2289 0015515 148.0058 212.2081 14.26201538  2848
QIANFAN-100             
1 66042U 25233K   25310.26709543  .00000823  00000+0  33713-3 0  9992
2 66042  88.9952  66.2289 0015964 149.6538 210.5583 14.26217085  2849
QIANFAN-101             
1 66043U 25233L   25310.26425200  .00000498  00000+0  20011-3 0  9993
2 66043  88.9953  66.2285 0015918 147.8774 212.3394 14.26636664  2846
QIANFAN-102             
1 66044U 25233M   25310.26698602  .00000834  00000+0  34167-3 0  9993
2 66044  88.9952  66.2288 0016331 149.7453 210.4687 14.26221309  2844
QIANFAN-103             
1 66045U 25233N   25310.26666353  .00000847  00000+0  34712-3 0  9992
2 66045  88.9953  66.2289 0015722 148.5334 211.6803 14.26250586  2847
QIANFAN-104             
1 66046U 25233P   25310.26642722  .00000845  00000+0  34597-3 0  9996
2 66046  88.9953  66.2289 0015707 150.7714 209.4361 14.26271341  2844
QIANFAN-105             
1 66047U 25233Q   25310.26600375  .00000823  00000+0  33653-3 0  9993
2 66047  88.9952  66.2286 0015898 150.9157 209.2926 14.26329595  2845
QIANFAN-106             
1 66048U 25233R   25310.26604075  .00000821  00000+0  33578-3 0  9999
2 66048  88.9952  66.2287 0015771 150.5828 209.6257 14.26312941  2846
QIANFAN-107             
1 66049U 25233S   25310.26581684  .00000829  00000+0  33889-3 0  9993
2 66049  88.9952  66.2286 0016552 148.7481 211.4700 14.26341847  2849
QIANFAN-108             
1 66050U 25233T   25310.26554760  .00000811  00000+0  33137-3 0  9997
2 66050  88.9951  66.2285 0016519 150.4309 209.7823 14.26354835  2848
